[{"OBJECT_NAME":"STARLINK-36497","OBJECT_ID":"2026-002U","EPOCH":"2026-03-02T20:32:42.549792","MEAN_MOTION":15.2757945,"ECCENTRICITY":0.00010256,"INCLINATION":42.9993,"RA_OF_ASC_NODE":3.8668,"ARG_OF_PERICENTER":277.2722,"MEAN_ANOMALY":82.8013,"EPHEMERIS_TYPE":0,"CLASSIFICATION_TYPE":"U","NORAD_CAT_ID":67323,"ELEMENT_SET_NO":999,"REV_AT_EPOCH":1009,"BSTAR":0.0007610457,"MEAN_MOTION_DOT":0.00020739,"MEAN_MOTION_DDOT":0},{"OBJECT_NAME":"STARLINK-36471","OBJECT_ID":"2026-002V","EPOCH":"2026-03-02T23:20:39.478560","MEAN_MOTION":15.27594175,"ECCENTRICITY":9.895e-5,"INCLINATION":43.0008,"RA_OF_ASC_NODE":3.0234,"ARG_OF_PERICENTER":265.3418,"MEAN_ANOMALY":94.732,"EPHEMERIS_TYPE":0,"CLASSIFICATION_TYPE":"U","NORAD_CAT_ID":67324,"ELEMENT_SET_NO":999,"REV_AT_EPOCH":1005,"BSTAR":0.00084557198,"MEAN_MOTION_DOT":0.00023089,"MEAN_MOTION_DDOT":0},{"OBJECT_NAME":"STARLINK-36473","OBJECT_ID":"2026-002W","EPOCH":"2026-03-02T20:17:54.537504","MEAN_MOTION":15.27583016,"ECCENTRICITY":8.061e-5,"INCLINATION":43.0012,"RA_OF_ASC_NODE":3.7899,"ARG_OF_PERICENTER":244.479,"MEAN_ANOMALY":115.5978,"EPHEMERIS_TYPE":0,"CLASSIFICATION_TYPE":"U","NORAD_CAT_ID":67325,"ELEMENT_SET_NO":999,"REV_AT_EPOCH":1019,"BSTAR":0.0010721516,"MEAN_MOTION_DOT":0.00029361,"MEAN_MOTION_DDOT":0},{"OBJECT_NAME":"STARLINK-36430","OBJECT_ID":"2026-002X","EPOCH":"2026-03-02T04:04:52.161024","MEAN_MOTION":15.27589912,"ECCENTRICITY":0.00024502,"INCLINATION":43.0069,"RA_OF_ASC_NODE":7.3148,"ARG_OF_PERICENTER":242.4366,"MEAN_ANOMALY":117.6237,"EPHEMERIS_TYPE":0,"CLASSIFICATION_TYPE":"U","NORAD_CAT_ID":67326,"ELEMENT_SET_NO":999,"REV_AT_EPOCH":1009,"BSTAR":0.00095407119,"MEAN_MOTION_DOT":0.00026093,"MEAN_MOTION_DDOT":0},{"OBJECT_NAME":"STARLINK-36501","OBJECT_ID":"2026-002Y","EPOCH":"2026-03-02T13:39:04.224096","MEAN_MOTION":15.27582572,"ECCENTRICITY":8.41e-5,"INCLINATION":43.0036,"RA_OF_ASC_NODE":5.1524,"ARG_OF_PERICENTER":333.736,"MEAN_ANOMALY":26.3448,"EPHEMERIS_TYPE":0,"CLASSIFICATION_TYPE":"U","NORAD_CAT_ID":67327,"ELEMENT_SET_NO":999,"REV_AT_EPOCH":999,"BSTAR":0.0010024,"MEAN_MOTION_DOT":0.00027425,"MEAN_MOTION_DDOT":0},{"OBJECT_NAME":"STARLINK-36489","OBJECT_ID":"2026-002Z","EPOCH":"2026-03-02T20:51:12.788064","MEAN_MOTION":15.27584623,"ECCENTRICITY":7.703e-5,"INCLINATION":42.9994,"RA_OF_ASC_NODE":3.9648,"ARG_OF_PERICENTER":280.9431,"MEAN_ANOMALY":79.1334,"EPHEMERIS_TYPE":0,"CLASSIFICATION_TYPE":"U","NORAD_CAT_ID":67328,"ELEMENT_SET_NO":999,"REV_AT_EPOCH":1019,"BSTAR":0.0010214527,"MEAN_MOTION_DOT":0.00027957,"MEAN_MOTION_DDOT":0},{"OBJECT_NAME":"STARLINK-36496","OBJECT_ID":"2026-002AA","EPOCH":"2026-03-02T20:28:59.833920","MEAN_MOTION":15.27602636,"ECCENTRICITY":4.478e-5,"INCLINATION":42.9976,"RA_OF_ASC_NODE":3.8471,"ARG_OF_PERICENTER":108.566,"MEAN_ANOMALY":251.524,"EPHEMERIS_TYPE":0,"CLASSIFICATION_TYPE":"U","NORAD_CAT_ID":67329,"ELEMENT_SET_NO":999,"REV_AT_EPOCH":1001,"BSTAR":0.00097330202,"MEAN_MOTION_DOT":0.00026636,"MEAN_MOTION_DDOT":0},{"OBJECT_NAME":"STARLINK-36483","OBJECT_ID":"2026-002AB","EPOCH":"2026-03-02T21:00:27.050976","MEAN_MOTION":15.27577637,"ECCENTRICITY":0.00013258,"INCLINATION":43.0018,"RA_OF_ASC_NODE":4.0136,"ARG_OF_PERICENTER":270.5234,"MEAN_ANOMALY":89.5466,"EPHEMERIS_TYPE":0,"CLASSIFICATION_TYPE":"U","NORAD_CAT_ID":67330,"ELEMENT_SET_NO":999,"REV_AT_EPOCH":1019,"BSTAR":-5.6394708e-5,"MEAN_MOTION_DOT":-1.813e-5,"MEAN_MOTION_DDOT":0},{"OBJECT_NAME":"STARLINK-36494","OBJECT_ID":"2026-002AC","EPOCH":"2026-03-02T20:34:32.821248","MEAN_MOTION":15.2758479,"ECCENTRICITY":0.00017492,"INCLINATION":43.0042,"RA_OF_ASC_NODE":3.8733,"ARG_OF_PERICENTER":269.6551,"MEAN_ANOMALY":90.41,"EPHEMERIS_TYPE":0,"CLASSIFICATION_TYPE":"U","NORAD_CAT_ID":67331,"ELEMENT_SET_NO":999,"REV_AT_EPOCH":1019,"BSTAR":-0.000195211,"MEAN_MOTION_DOT":-5.631e-5,"MEAN_MOTION_DDOT":0},{"OBJECT_NAME":"STARLINK-36492","OBJECT_ID":"2026-002AD","EPOCH":"2026-03-02T19:37:25.723776","MEAN_MOTION":15.27592524,"ECCENTRICITY":0.00022965,"INCLINATION":43.0068,"RA_OF_ASC_NODE":4.4464,"ARG_OF_PERICENTER":262.1434,"MEAN_ANOMALY":97.9157,"EPHEMERIS_TYPE":0,"CLASSIFICATION_TYPE":"U","NORAD_CAT_ID":67332,"ELEMENT_SET_NO":999,"REV_AT_EPOCH":1018,"BSTAR":0.00096135962,"MEAN_MOTION_DOT":0.00026297,"MEAN_MOTION_DDOT":0},{"OBJECT_NAME":"STARLINK-36427","OBJECT_ID":"2026-002AE","EPOCH":"2026-03-02T20:38:15.392832","MEAN_MOTION":15.27582865,"ECCENTRICITY":8.541e-5,"INCLINATION":42.9987,"RA_OF_ASC_NODE":3.8839,"ARG_OF_PERICENTER":281.323,"MEAN_ANOMALY":78.7525,"EPHEMERIS_TYPE":0,"CLASSIFICATION_TYPE":"U","NORAD_CAT_ID":67333,"ELEMENT_SET_NO":999,"REV_AT_EPOCH":1009,"BSTAR":0.00091355788,"MEAN_MOTION_DOT":0.00024964,"MEAN_MOTION_DDOT":0},{"OBJECT_NAME":"STARLINK-35343","OBJECT_ID":"2026-003A","EPOCH":"2026-03-02T15:06:55.825920","MEAN_MOTION":15.27594824,"ECCENTRICITY":0.0001288,"INCLINATION":42.9959,"RA_OF_ASC_NODE":266.9828,"ARG_OF_PERICENTER":223.3168,"MEAN_ANOMALY":136.7583,"EPHEMERIS_TYPE":0,"CLASSIFICATION_TYPE":"U","NORAD_CAT_ID":67334,"ELEMENT_SET_NO":999,"REV_AT_EPOCH":774,"BSTAR":0.00088644,"MEAN_MOTION_DOT":0.00024222,"MEAN_MOTION_DDOT":0},{"OBJECT_NAME":"STARLINK-36486","OBJECT_ID":"2026-003B","EPOCH":"2026-03-02T22:26:15.326304","MEAN_MOTION":15.27595077,"ECCENTRICITY":0.00017937,"INCLINATION":43.0011,"RA_OF_ASC_NODE":264.9671,"ARG_OF_PERICENTER":259.7524,"MEAN_ANOMALY":100.3126,"EPHEMERIS_TYPE":0,"CLASSIFICATION_TYPE":"U","NORAD_CAT_ID":67335,"ELEMENT_SET_NO":999,"REV_AT_EPOCH":779,"BSTAR":0.0012070672,"MEAN_MOTION_DOT":0.00033119,"MEAN_MOTION_DDOT":0},{"OBJECT_NAME":"STARLINK-36480","OBJECT_ID":"2026-003C","EPOCH":"2026-03-02T23:08:48.889536","MEAN_MOTION":15.2760485,"ECCENTRICITY":0.00024261,"INCLINATION":43.0004,"RA_OF_ASC_NODE":265.1977,"ARG_OF_PERICENTER":265.7585,"MEAN_ANOMALY":94.299,"EPHEMERIS_TYPE":0,"CLASSIFICATION_TYPE":"U","NORAD_CAT_ID":67336,"ELEMENT_SET_NO":999,"REV_AT_EPOCH":779,"BSTAR":0.0012851051,"MEAN_MOTION_DOT":0.00035299,"MEAN_MOTION_DDOT":0},{"OBJECT_NAME":"STARLINK-36410","OBJECT_ID":"2026-003D","EPOCH":"2026-03-02T22:00:34.183584","MEAN_MOTION":15.27600884,"ECCENTRICITY":0.00020667,"INCLINATION":43.0029,"RA_OF_ASC_NODE":265.7011,"ARG_OF_PERICENTER":260.4741,"MEAN_ANOMALY":99.5877,"EPHEMERIS_TYPE":0,"CLASSIFICATION_TYPE":"U","NORAD_CAT_ID":67337,"ELEMENT_SET_NO":999,"REV_AT_EPOCH":778,"BSTAR":0.0011183356,"MEAN_MOTION_DOT":0.0003066,"MEAN_MOTION_DDOT":0},{"OBJECT_NAME":"STARLINK-36413","OBJECT_ID":"2026-003E","EPOCH":"2026-03-02T23:23:37.082400","MEAN_MOTION":15.2759825,"ECCENTRICITY":0.00025051,"INCLINATION":43.0006,"RA_OF_ASC_NODE":265.2739,"ARG_OF_PERICENTER":274.7211,"MEAN_ANOMALY":85.3355,"EPHEMERIS_TYPE":0,"CLASSIFICATION_TYPE":"U","NORAD_CAT_ID":67338,"ELEMENT_SET_NO":999,"REV_AT_EPOCH":779,"BSTAR":0.0010262528,"MEAN_MOTION_DOT":0.00028103,"MEAN_MOTION_DDOT":0}]
