STARLINK-36497          
1 67323U 26002U   26061.85604803  .00020739  00000+0  76105-3 0  9992
2 67323  42.9993   3.8668 0001025 277.2722  82.8013 15.27579450 10094
STARLINK-36471          
1 67324U 26002V   26061.97267915  .00023089  00000+0  84557-3 0  9996
2 67324  43.0008   3.0234 0000989 265.3418  94.7320 15.27594175 10053
STARLINK-36473          
1 67325U 26002W   26061.84577011  .00029361  00000+0  10722-2 0  9995
2 67325  43.0012   3.7899 0000806 244.4790 115.5978 15.27583016 10190
STARLINK-36430          
1 67326U 26002X   26061.17004816  .00026093  00000+0  95407-3 0  9993
2 67326  43.0069   7.3148 0002450 242.4366 117.6237 15.27589912 10095
STARLINK-36501          
1 67327U 26002Y   26061.56879889  .00027425  00000+0  10024-2 0  9998
2 67327  43.0036   5.1524 0000841 333.7360  26.3448 15.27582572  9996
STARLINK-36489          
1 67328U 26002Z   26061.86889801  .00027957  00000+0  10215-2 0  9999
2 67328  42.9994   3.9648 0000770 280.9431  79.1334 15.27584623 10197
STARLINK-36496          
1 67329U 26002AA  26061.85347030  .00026636  00000+0  97330-3 0  9999
2 67329  42.9976   3.8471 0000447 108.5660 251.5240 15.27602636 10019
STARLINK-36483          
1 67330U 26002AB  26061.87531309 -.00001813  00000+0 -56395-4 0  9996
2 67330  43.0018   4.0136 0001325 270.5234  89.5466 15.27577637 10194
STARLINK-36494          
1 67331U 26002AC  26061.85732432 -.00005631  00000+0 -19521-3 0  9996
2 67331  43.0042   3.8733 0001749 269.6551  90.4100 15.27584790 10197
STARLINK-36492          
1 67332U 26002AD  26061.81765884  .00026297  00000+0  96136-3 0  9996
2 67332  43.0068   4.4464 0002296 262.1434  97.9157 15.27592524 10187
STARLINK-36427          
1 67333U 26002AE  26061.85990038  .00024964  00000+0  91356-3 0  9990
2 67333  42.9987   3.8839 0000854 281.3230  78.7525 15.27582865 10093
STARLINK-35343          
1 67334U 26003A   26061.62981280  .00024222  00000+0  88644-3 0  9999
2 67334  42.9959 266.9828 0001288 223.3168 136.7583 15.27594824  7746
STARLINK-36486          
1 67335U 26003B   26061.93489961  .00033119  00000+0  12071-2 0  9998
2 67335  43.0011 264.9671 0001793 259.7524 100.3126 15.27595077  7798
STARLINK-36480          
1 67336U 26003C   26061.96445474  .00035299  00000+0  12851-2 0  9990
2 67336  43.0004 265.1977 0002426 265.7585  94.2990 15.27604850  7791
STARLINK-36410          
1 67337U 26003D   26061.91706231  .00030660  00000+0  11183-2 0  9991
2 67337  43.0029 265.7011 0002066 260.4741  99.5877 15.27600884  7784
STARLINK-36413          
1 67338U 26003E   26061.97473475  .00028103  00000+0  10263-2 0  9996
2 67338  43.0006 265.2739 0002505 274.7211  85.3355 15.27598250  7798
